{
    "links": {
        "self": "http://www.neowsapp.com/rest/v1/neo/54051053?api_key=iIulBulltgU6a56xZRHN4H3l9WmuAYTsLGpBGhQ2"
    },
    "id": "54051053",
    "neo_reference_id": "54051053",
    "name": "(2020 PD3)",
    "designation": "2020 PD3",
    "nasa_jpl_url": "http://ssd.jpl.nasa.gov/sbdb.cgi?sstr=54051053",
    "absolute_magnitude_h": 25.066,
    "estimated_diameter": {
        "kilometers": {
            "estimated_diameter_min": 0.0257842781,
            "estimated_diameter_max": 0.0576553986
        },
        "meters": {
            "estimated_diameter_min": 25.784278096,
            "estimated_diameter_max": 57.6553985734
        },
        "miles": {
            "estimated_diameter_min": 0.0160216027,
            "estimated_diameter_max": 0.0358253927
        },
        "feet": {
            "estimated_diameter_min": 84.5940909484,
            "estimated_diameter_max": 189.1581378554
        }
    },
    "is_potentially_hazardous_asteroid": false,
    "close_approach_data": [
        {
            "close_approach_date": "2020-08-02",
            "close_approach_date_full": "2020-Aug-02 21:25",
            "epoch_date_close_approach": 1596403500000,
            "relative_velocity": {
                "kilometers_per_second": "12.6423055717",
                "kilometers_per_hour": "45512.3000582849",
                "miles_per_hour": "28279.5733334382"
            },
            "miss_distance": {
                "astronomical": "0.0441249623",
                "lunar": "17.1646103347",
                "kilometers": "6601000.373910301",
                "miles": "4101671.4353161138"
            },
            "orbiting_body": "Earth"
        }
    ],
    "orbital_data": {
        "orbit_id": "2",
        "orbit_determination_date": "2020-08-18 06:06:58",
        "first_observation_date": "2020-08-13",
        "last_observation_date": "2020-08-17",
        "data_arc_in_days": 4,
        "observations_used": 17,
        "orbit_uncertainty": "8",
        "minimum_orbit_intersection": ".0262171",
        "jupiter_tisserand_invariant": "3.341",
        "epoch_osculation": "2459075.5",
        "eccentricity": ".5813514312825903",
        "semi_major_axis": "2.286207923543899",
        "inclination": "9.151491072225953",
        "ascending_node_longitude": "134.1741338673514",
        "orbital_period": "1262.618113052862",
        "perihelion_distance": ".9571176749820548",
        "perihelion_argument": "136.1840759811816",
        "aphelion_distance": "3.615298172105744",
        "perihelion_time": "2459033.611049242430",
        "mean_anomaly": "11.94345472857464",
        "mean_motion": ".2851218403081216",
        "equinox": "J2000",
        "orbit_class": {
            "orbit_class_type": "APO",
            "orbit_class_description": "Near-Earth asteroid orbits which cross the Earth’s orbit similar to that of 1862 Apollo",
            "orbit_class_range": "a (semi-major axis) > 1.0 AU; q (perihelion) < 1.017 AU"
        }
    },
    "is_sentry_object": false
}